OBJECT_NAME,OBJECT_ID,EPOCH,MEAN_MOTION,ECCENTRICITY,INCLINATION,RA_OF_ASC_NODE,ARG_OF_PERICENTER,MEAN_ANOMALY,EPHEMERIS_TYPE,CLASSIFICATION_TYPE,NORAD_CAT_ID,ELEMENT_SET_NO,REV_AT_EPOCH,BSTAR,MEAN_MOTION_DOT,MEAN_MOTION_DDOT
QB50P1,2014-033R,2026-07-19T20:01:29.538624,15.18706912,.0010516,98.0972,214.2811,111.1602,249.0755,0,U,40025,999,65798,.21335E-3,.4354E-4,0
DTUSAT-2,2014-033W,2026-07-19T17:29:31.903008,15.15385003,.0009578,98.0884,200.5336,118.7246,241.4948,0,U,40030,999,65761,.18119E-3,.3348E-4,0
QB50P2,2014-033Y,2026-07-19T12:31:27.833952,15.15540194,.00092096,98.0770,199.4267,71.8039,288.4193,0,U,40032,999,65756,.18646868E-3,.3463E-4,0
PERSEUS-M1,2014-033AF,2026-07-19T19:36:59.955840,14.95723704,.0011244,97.9654,145.4891,181.1687,178.9509,0,U,40039,999,65551,.41244E-4,.399E-5,0
POLYITAN-1,2014-033AJ,2026-07-19T12:58:50.635776,15.34312602,.0007515,98.0935,229.8891,51.2798,308.9114,0,U,40042,999,65855,.30475E-3,.10044E-3,0
TIGRISAT,2014-033AK,2026-07-19T20:35:57.590016,14.85256969,.0048241,97.7872,350.1303,328.8073,31.0280,0,U,40043,999,65047,.91582E-4,.746E-5,0
CANX-4,2014-034C,2026-07-19T05:42:26.347680,14.81314925,.0011369,98.3077,76.7214,268.2732,91.7177,0,U,40055,999,64927,.56964472E-4,.387E-5,0
CANX-5,2014-034D,2026-07-19T05:39:38.620224,14.81332261,.00113728,98.3080,76.7649,268.5748,91.4161,0,U,40056,999,64008,.56525204E-4,.384E-5,0
GONETS-M 10,2014-036C,2026-07-19T19:56:57.980832,12.42946331,.0022874,82.5116,287.4005,72.8163,287.5418,0,U,40063,999,54630,-.17014E-3,-.14E-6,0
METEOR-M 2,2014-037A,2026-07-19T21:02:40.579584,14.21469065,.0004839,98.5141,175.4613,311.1821,48.8939,0,U,40069,999,62396,-.1313E-3,-.329E-5,0
DX1,2014-037C,2026-07-19T20:43:42.446208,14.90072190,.0007502,98.3892,164.5539,154.4808,205.6780,0,U,40071,999,65097,.14527E-3,.1341E-4,0
UKUBE-1,2014-037F,2026-07-19T18:08:07.905120,15.13990479,.000318,98.4250,207.4625,80.2110,279.9478,0,U,40074,999,65348,.24773E-3,.4417E-4,0
GAOFEN-2,2014-049A,2026-07-19T21:05:21.839136,14.80931491,.0008557,98.0089,265.0522,121.8390,238.3657,0,U,40118,999,64407,.81575E-4,.578E-5,0
BRITE-PL2 (HEWELIUSZ),2014-049B,2026-07-19T18:36:26.620704,14.94693226,.0013872,97.9121,313.0328,7.3267,352.8153,0,U,40119,999,64631,.73988E-4,.744E-5,0
CBERS 4,2014-079A,2026-07-19T20:48:05.591232,14.35515886,.0000608,98.3510,256.6700,64.4895,295.6354,0,U,40336,999,60864,-.59992E-4,-.215E-5,0
SMAP,2015-003A,2026-07-19T19:57:52.596000,14.63391249,.000163,98.1285,207.4655,93.3256,266.8132,0,U,40376,999,61239,.42296E-4,.172E-5,0
GONETS-M 11,2015-020A,2026-07-19T20:25:57.567072,12.42878408,.0015294,82.4873,10.6331,292.4001,67.5458,0,U,40552,999,51279,-.34681E-3,-.38E-6,0
GONETS-M 12,2015-020B,2026-07-19T19:47:17.039328,12.42892012,.0014216,82.4906,11.7821,276.1756,83.7704,0,U,40553,999,51278,-.52537E-4,.2E-7,0
GONETS-M 13,2015-020C,2026-07-19T21:05:47.842080,12.42872031,.0012817,82.4869,10.3539,259.7433,100.2202,0,U,40554,999,51276,.36763E-3,.61E-6,0
DMC3-FM1,2015-032A,2026-07-19T20:51:02.572992,14.85771537,.0004476,97.6419,64.7553,321.0778,39.0115,0,U,40715,999,59476,.39063E-4,.288E-5,0
DMC3-FM2,2015-032B,2026-07-19T21:22:36.199200,14.85774832,.0005138,97.6470,66.3724,325.2819,34.8061,0,U,40716,999,59476,-.27665E-4,-.292E-5,0
DMC3-FM3,2015-032C,2026-07-19T20:19:33.443904,14.85764625,.0004317,97.6520,68.1038,327.3982,32.6967,0,U,40717,999,59476,.35603E-4,.258E-5,0
CARBONITE 1 (CBNT-1),2015-032D,2026-07-19T19:48:15.494112,14.83673529,.0014247,97.6528,17.5291,181.4157,178.7019,0,U,40718,999,59418,.39662E-4,.277E-5,0
LILACSAT-2,2015-049K,2026-07-19T19:59:00.220416,15.52462057,.0008583,97.4625,238.9328,128.1087,232.0941,0,U,40908,999,60081,.18712E-3,.11361E-3,0
COSMOS 2507 (RODNIK-S 13),2015-050A,2026-07-19T21:54:39.625632,12.42927417,.0008921,82.4898,59.2906,281.7217,78.2862,0,U,40920,999,49092,-.44316E-3,-.52E-6,0
COSMOS 2508 (RODNIK-S 14),2015-050B,2026-07-19T20:50:19.836960,12.42914913,.0013741,82.4851,57.8109,316.2942,43.7048,0,U,40921,999,49090,-.76147E-3,-.96E-6,0
