QB50P1                  
1 40025U 14033R   26200.83436966  .00004354  00000+0  21335-3 0  9999
2 40025  98.0972 214.2811 0010516 111.1602 249.0755 15.18706912657989
DTUSAT-2                
1 40030U 14033W   26200.72884147  .00003348  00000+0  18119-3 0  9999
2 40030  98.0884 200.5336 0009578 118.7246 241.4948 15.15385003657611
QB50P2                  
1 40032U 14033Y   26200.52184993  .00003463  00000+0  18647-3 0  9995
2 40032  98.0770 199.4267 0009209  71.8039 288.4193 15.15540194657567
PERSEUS-M1              
1 40039U 14033AF  26200.81736060  .00000399  00000+0  41244-4 0  9997
2 40039  97.9654 145.4891 0011244 181.1687 178.9509 14.95723704655517
POLYITAN-1              
1 40042U 14033AJ  26200.54086384  .00010044  00000+0  30475-3 0  9999
2 40042  98.0935 229.8891 0007515  51.2798 308.9114 15.34312602658557
TIGRISAT                
1 40043U 14033AK  26200.85830544  .00000746  00000+0  91582-4 0  9994
2 40043  97.7872 350.1303 0048241 328.8073  31.0280 14.85256969650479
CANX-4                  
1 40055U 14034C   26200.23780495  .00000387  00000+0  56964-4 0  9995
2 40055  98.3077  76.7214 0011369 268.2732  91.7177 14.81314925649275
CANX-5                  
1 40056U 14034D   26200.23586366  .00000384  00000+0  56525-4 0  9997
2 40056  98.3080  76.7649 0011372 268.5748  91.4161 14.81332261640089
GONETS-M 10             
1 40063U 14036C   26200.83122663 -.00000014  00000+0 -17014-3 0  9990
2 40063  82.5116 287.4005 0022874  72.8163 287.5418 12.42946331546302
METEOR-M 2              
1 40069U 14037A   26200.87685856 -.00000329  00000+0 -13130-3 0  9993
2 40069  98.5141 175.4613 0004839 311.1821  48.8939 14.21469065623962
DX1                     
1 40071U 14037C   26200.86368572  .00001341  00000+0  14527-3 0  9992
2 40071  98.3892 164.5539 0007502 154.4808 205.6780 14.90072190650978
UKUBE-1                 
1 40074U 14037F   26200.75564705  .00004417  00000+0  24773-3 0  9990
2 40074  98.4250 207.4625 0003180  80.2110 279.9478 15.13990479653485
GAOFEN-2                
1 40118U 14049A   26200.87872499  .00000578  00000+0  81575-4 0  9995
2 40118  98.0089 265.0522 0008557 121.8390 238.3657 14.80931491644076
BRITE-PL2 (HEWELIUSZ)   
1 40119U 14049B   26200.77530811  .00000744  00000+0  73988-4 0  9998
2 40119  97.9121 313.0328 0013872   7.3267 352.8153 14.94693226646315
CBERS 4                 
1 40336U 14079A   26200.86673138 -.00000215  00000+0 -59992-4 0  9996
2 40336  98.3510 256.6700 0000608  64.4895 295.6354 14.35515886608644
SMAP                    
1 40376U 15003A   26200.83185875  .00000172  00000+0  42296-4 0  9990
2 40376  98.1285 207.4655 0001630  93.3256 266.8132 14.63391249612393
GONETS-M 11             
1 40552U 15020A   26200.85136073 -.00000038  00000+0 -34681-3 0  9994
2 40552  82.4873  10.6331 0015294 292.4001  67.5458 12.42878408512796
GONETS-M 12             
1 40553U 15020B   26200.82450277  .00000002  00000+0 -52537-4 0  9998
2 40553  82.4906  11.7821 0014216 276.1756  83.7704 12.42892012512789
GONETS-M 13             
1 40554U 15020C   26200.87902595  .00000061  00000+0  36763-3 0  9995
2 40554  82.4869  10.3539 0012817 259.7433 100.2202 12.42872031512768
DMC3-FM1                
1 40715U 15032A   26200.86877978  .00000288  00000+0  39063-4 0  9990
2 40715  97.6419  64.7553 0004476 321.0778  39.0115 14.85771537594762
DMC3-FM2                
1 40716U 15032B   26200.89069675 -.00000292  00000+0 -27665-4 0  9993
2 40716  97.6470  66.3724 0005138 325.2819  34.8061 14.85774832594760
DMC3-FM3                
1 40717U 15032C   26200.84691486  .00000258  00000+0  35603-4 0  9991
2 40717  97.6520  68.1038 0004317 327.3982  32.6967 14.85764625594767
CARBONITE 1 (CBNT-1)    
1 40718U 15032D   26200.82517933  .00000277  00000+0  39662-4 0  9994
2 40718  97.6528  17.5291 0014247 181.4157 178.7019 14.83673529594187
LILACSAT-2              
1 40908U 15049K   26200.83264144  .00011361  00000+0  18712-3 0  9995
2 40908  97.4625 238.9328 0008583 128.1087 232.0941 15.52462057600815
COSMOS 2507 (RODNIK-S *)
1 40920U 15050A   26200.91295863 -.00000052  00000+0 -44316-3 0  9998
2 40920  82.4898  59.2906 0008921 281.7217  78.2862 12.42927417490921
COSMOS 2508 (RODNIK-S *)
1 40921U 15050B   26200.86828515 -.00000096  00000+0 -76147-3 0  9994
2 40921  82.4851  57.8109 0013741 316.2942  43.7048 12.42914913490903
